
# Worst residual: 135.87 km
# MJD 59603.000000 (2022 Jan 24  0:00)
A10HxVO = A10Hlaq = A10HVyr
1 79984U 22999ZZJ 22024.49919926  .00000000  00000-0  00000-0 0 16221
2 79984 016.3909 323.7511 0612948 096.9988 173.4036 00.91555978    01

# Worst residual: 119.20 km
# MJD 59604.000000 (2022 Jan 25  0:00)
A10HxVO = A10Hlaq = A10HVyr
1 79984U 22999ZZJ 22025.49919926  .00000000  00000-0  00000-0 0 16222
2 79984 016.3864 323.7267 0679493 094.3416 145.5897 00.91412427    01

# Worst residual: 96.47 km
# MJD 59605.000000 (2022 Jan 26  0:00)
A10HxVO = A10Hlaq = A10HVyr
1 79984U 22999ZZJ 22026.49919926  .00000000  00000-0  00000-0 0 16223
2 79984 016.3888 323.6809 0753366 092.3856 117.1561 00.91296263    07

# Worst residual: 58.68 km
# MJD 59606.000000 (2022 Jan 27  0:00)
A10HxVO = A10Hlaq = A10HVyr
1 79984U 22999ZZJ 22027.49919926  .00000000  00000-0  00000-0 0 16224
2 79984 016.3881 323.6356 0834077 090.5558 088.6361 00.91251847    04

# Worst residual: 98.07 km
# MJD 59607.000000 (2022 Jan 28  0:00)
A10HxVO = A10Hlaq = A10HVyr
1 79984U 22999ZZJ 22028.49919926  .00000000  00000-0  00000-0 0 16225
2 79984 016.3821 323.5785 0914950 088.7195 060.1498 00.91289120    09

# Worst residual: 144.62 km
# MJD 59608.000000 (2022 Jan 29  0:00)
A10HxVO = A10Hlaq = A10HVyr
1 79984U 22999ZZJ 22029.49919926  .00000000  00000-0  00000-0 0 16226
2 79984 016.3858 323.5360 0990279 087.1833 031.3347 00.91397482    02

# Worst residual: 146.17 km
# MJD 59609.000000 (2022 Jan 30  0:00)
A10HxVO = A10Hlaq = A10HVyr
1 79984U 22999ZZJ 22030.49919926  .00000000  00000-0  00000-0 0 16228
2 79984 016.3824 323.4767 1061405 086.2143 001.9246 00.91544763    07

# Worst residual: 131.06 km
# MJD 59610.000000 (2022 Jan 31  0:00)
A10HxVO = A10Hlaq = A10HVyr
1 79984U 22999ZZJ 22031.49919926  .00000000  00000-0  00000-0 0 16229
2 79984 016.3774 323.4153 1135398 085.7731 331.9286 00.91684884    09

# Worst residual: 73.85 km
# MJD 59611.000000 (2022 Feb  1  0:00)
A10HxVO = A10Hlaq = A10HVyr
1 79984U 22999ZZJ 22032.49919926  .00000000  00000-0  00000-0 0 16220
2 79984 016.3686 323.3619 1216118 085.5019 301.7035 00.91780065    09

# Worst residual: 64.61 km
# MJD 59612.000000 (2022 Feb  2  0:00)
A10HxVO = A10Hlaq = A10HVyr
1 79984U 22999ZZJ 22033.49919926  .00000000  00000-0  00000-0 0 16221
2 79984 016.3682 323.3006 1301791 085.1332 271.5556 00.91798416    02

# Worst residual: 92.43 km
# MJD 59613.000000 (2022 Feb  3  0:00)
A10HxVO = A10Hlaq = A10HVyr
1 79984U 22999ZZJ 22034.49919926  .00000000  00000-0  00000-0 0 16222
2 79984 016.3602 323.2290 1384729 084.6036 241.5706 00.91744529    05

# Worst residual: 127.86 km
# MJD 59614.000000 (2022 Feb  4  0:00)
A10HxVO = A10Hlaq = A10HVyr
1 79984U 22999ZZJ 22035.49919926  .00000000  00000-0  00000-0 0 16223
2 79984 016.3658 323.1758 1459256 084.1304 211.5303 00.91617413    06

# Worst residual: 133.36 km
# MJD 59615.000000 (2022 Feb  5  0:00)
A10HxVO = A10Hlaq = A10HVyr
1 79984U 22999ZZJ 22036.49919926  .00000000  00000-0  00000-0 0 16224
2 79984 016.3542 323.0953 1530140 084.0784 181.1393 00.91475635    06

# Worst residual: 102.78 km
# MJD 59616.000000 (2022 Feb  6  0:00)
A10HxVO = A10Hlaq = A10HVyr
1 79984U 22999ZZJ 22037.49919926  .00000000  00000-0  00000-0 0 16225
2 79984 016.3458 322.9816 1602261 084.3156 150.5328 00.91330327    04

# Worst residual: 73.68 km
# MJD 59617.000000 (2022 Feb  7  0:00)
A10HxVO = A10Hlaq = A10HVyr
1 79984U 22999ZZJ 22038.49919926  .00000000  00000-0  00000-0 0 16226
2 79984 016.3449 322.9338 1684151 084.5021 119.9722 00.91264750    07

# Worst residual: 64.43 km
# MJD 59618.000000 (2022 Feb  8  0:00)
A10HxVO = A10Hlaq = A10HVyr
1 79984U 22999ZZJ 22039.49919926  .00000000  00000-0  00000-0 0 16227
2 79984 016.3429 322.8506 1769284 084.5689 089.5925 00.91269962    09

# Worst residual: 119.59 km
# MJD 59619.000000 (2022 Feb  9  0:00)
A10HxVO = A10Hlaq = A10HVyr
1 79984U 22999ZZJ 22040.49919926  .00000000  00000-0  00000-0 0 16229
2 79984 016.3404 322.7468 1850623 084.5048 059.3706 00.91348680    02

# Worst residual: 145.09 km
# MJD 59620.000000 (2022 Feb 10  0:00)
A10HxVO = A10Hlaq = A10HVyr
1 79984U 22999ZZJ 22041.49919926  .00000000  00000-0  00000-0 0 16220
2 79984 016.3387 322.6561 1926104 084.5584 028.9798 00.91481287    02

# Worst residual: 151.11 km
# MJD 59621.000000 (2022 Feb 11  0:00)
A10HxVO = A10Hlaq = A10HVyr
1 79984U 22999ZZJ 22042.49919926  .00000000  00000-0  00000-0 0 16221
2 79984 016.3349 322.5544 1999692 084.8333 358.3237 00.91623253    06

# Worst residual: 115.27 km
# MJD 59622.000000 (2022 Feb 12  0:00)
A10HxVO = A10Hlaq = A10HVyr
1 79984U 22999ZZJ 22043.49919926  .00000000  00000-0  00000-0 0 16222
2 79984 016.3244 322.4279 2076406 085.2244 327.4984 00.91740650    07

# Worst residual: 60.17 km
# MJD 59623.000000 (2022 Feb 13  0:00)
A10HxVO = A10Hlaq = A10HVyr
1 79984U 22999ZZJ 22044.49919926  .00000000  00000-0  00000-0 0 16223
2 79984 016.3193 322.3485 2158113 085.6252 296.5882 00.91801570    09

# Worst residual: 100.79 km
# MJD 59624.000000 (2022 Feb 14  0:00)
A10HxVO = A10Hlaq = A10HVyr
1 79984U 22999ZZJ 22045.49919926  .00000000  00000-0  00000-0 0 16224
2 79984 016.3208 322.2433 2241914 085.8588 265.8613 00.91770949    00

# Worst residual: 101.00 km
# MJD 59625.000000 (2022 Feb 15  0:00)
A10HxVO = A10Hlaq = A10HVyr
1 79984U 22999ZZJ 22046.49919926  .00000000  00000-0  00000-0 0 16225
2 79984 016.3097 322.1268 2319371 086.0286 235.2171 00.91675679    06
